NORAD_CAT_ID,OBJECT_NAME,OBJECT_TYPE,EPOCH,MEAN_MOTION,ECCENTRICITY,INCLINATION,RA_OF_ASC_NODE,ARG_OF_PERICENTER,MEAN_ANOMALY,BSTAR,MEAN_MOTION_DOT,MEAN_MOTION_DDOT,TLE_LINE0,TLE_LINE1,TLE_LINE2,SEMIMAJOR_AXIS,PERIOD,APOGEE,PERIGEE,DECAYED
54163.0,STARLINK-5161,PAYLOAD,2023-10-06 13:54:24,15.08843707,0.0001199,53.2175,17.7058,99.0583,261.0545,0.00013617,1.88e-05,0.0,0 STARLINK-5161,1 54163U 22141G   23279.57944597  .00001880  00000-0  13617-3 0  9990,2 54163  53.2175  17.7058 0001199  99.0583 261.0545 15.08843707 52234,6917.869,95.437,540.564,538.905,0.0
54163.0,STARLINK-5161,PAYLOAD,2023-10-07 10:34:25,15.08845086,0.0001082,53.2175,13.8417,105.6122,254.499,0.0003322,5.004e-05,0.0,0 STARLINK-5161,1 54163U 22141G   23280.44057002  .00005004  00000-0  33220-3 0  9998,2 54163  53.2175  13.8417 0001082 105.6122 254.4990 15.08845086 52360,6917.865,95.437,540.478,538.981,0.0
54163.0,STARLINK-5161,PAYLOAD,2023-10-07 13:45:11,15.08850936,0.0001036,53.2175,13.2471,100.3173,259.7936,0.00044047,6.731e-05,0.0,0 STARLINK-5161,1 54163U 22141G   23280.57304801  .00006731  00000-0  44047-3 0  9991,2 54163  53.2175  13.2471 0001036 100.3173 259.7936 15.08850936 52381,6917.847,95.437,540.429,538.995,0.0
54163.0,STARLINK-5161,PAYLOAD,2023-10-07 15:20:34,15.08854542,0.0001109,53.2176,12.9501,109.1866,250.9247,0.00057099,8.815e-05,0.0,0 STARLINK-5161,1 54163U 22141G   23280.63928685  .00008815  00000-0  57099-3 0  9996,2 54163  53.2176  12.9501 0001109 109.1866 250.9247 15.08854542 52395,6917.836,95.437,540.468,538.934,0.0
54163.0,STARLINK-5161,PAYLOAD,2023-10-08 10:25:12,15.08841428,0.0001825,53.2181,9.379,131.7371,228.3777,0.00016335,2.313e-05,0.0,0 STARLINK-5161,1 54163U 22141G   23281.43417077  .00002313  00000-0  16335-3 0  9998,2 54163  53.2181   9.3790 0001825 131.7371 228.3777 15.08841428 52518,6917.876,95.437,541.004,538.479,0.0
54163.0,STARLINK-5161,PAYLOAD,2023-10-08 13:35:58,15.08844773,0.0001499,53.2174,8.7865,81.6712,278.445,0.00039606,6.022e-05,0.0,0 STARLINK-5161,1 54163U 22141G   23281.56665396  .00006022  00000-0  39606-3 0  9998,2 54163  53.2174   8.7865 0001499  81.6712 278.4450 15.08844773 52537,6917.866,95.437,540.768,538.694,0.0
54163.0,STARLINK-5161,PAYLOAD,2023-10-08 23:08:17,15.08858712,0.0001509,53.2174,7.0017,84.6471,275.4693,0.00072876,0.00011335,0.0,0 STARLINK-5161,1 54163U 22141G   23281.96408961  .00011335  00000-0  72876-3 0  9994,2 54163  53.2174   7.0017 0001509  84.6471 275.4693 15.08858712 52595,6917.823,95.436,540.732,538.644,0.0
54163.0,STARLINK-5161,PAYLOAD,2023-10-09 11:51:22,15.08831631,0.0001438,53.2175,4.6205,99.8705,260.2449,0.00025832,3.825e-05,0.0,0 STARLINK-5161,1 54163U 22141G   23282.49401117  .00003825  00000-0  25832-3 0  9994,2 54163  53.2175   4.6205 0001438  99.8705 260.2449 15.08831631 52678,6917.906,95.438,540.766,538.776,0.0
54163.0,STARLINK-5161,PAYLOAD,2023-10-09 15:02:08,15.08838991,0.0001317,53.2175,4.0257,96.1534,263.9608,0.00039384,5.985e-05,0.0,0 STARLINK-5161,1 54163U 22141G   23282.62649042  .00005985  00000-0  39384-3 0  9996,2 54163  53.2175   4.0257 0001317  96.1534 263.9608 15.08838991 52690,6917.883,95.438,540.66,538.837,0.0
54163.0,STARLINK-5161,PAYLOAD,2023-10-10 11:42:09,15.08856301,0.0001726,53.2175,0.1615,92.8249,267.2941,0.0011414,0.00017932,0.0,0 STARLINK-5161,1 54163U 22141G   23283.48761192  .00017932  00000-0  11414-2 0  9990,2 54163  53.2175   0.1615 0001726  92.8249 267.2941 15.08856301 52822,6917.831,95.437,540.89,538.502,0.0
54163.0,STARLINK-5161,PAYLOAD,2023-10-10 16:28:18,15.08878305,0.0001546,53.2181,359.2682,88.0539,272.0631,0.0018454,0.00029235,0.0,0 STARLINK-5161,1 54163U 22141G   23283.68632717  .00029235  00000-0  18454-2 0  9992,2 54163  53.2181 359.2682 0001546  88.0539 272.0631 15.08878305 52851,6917.763,95.435,540.698,538.559,0.0
54163.0,STARLINK-5161,PAYLOAD,2023-10-11 11:32:56,15.08839134,0.0001463,53.2185,355.7012,96.1223,263.9936,0.0012142,0.00019088,0.0,0 STARLINK-5161,1 54163U 22141G   23284.48121429  .00019088  00000-0  12142-2 0  9997,2 54163  53.2185 355.7012 0001463  96.1223 263.9936 15.08839134 52978,6917.883,95.438,540.76,538.736,0.0
54163.0,STARLINK-5161,PAYLOAD,2023-10-12 05:02:11,15.08847826,0.0001585,53.2189,352.4283,93.942,266.1753,0.0012268,0.00019295,0.0,0 STARLINK-5161,1 54163U 22141G   23285.20985826  .00019295  00000-0  12268-2 0  9996,2 54163  53.2189 352.4283 0001585  93.9420 266.1753 15.08847826 53087,6917.856,95.437,540.818,538.625,0.0
54163.0,STARLINK-5161,PAYLOAD,2023-10-12 11:23:44,15.08850802,0.0001556,53.2182,351.2408,82.2827,277.8342,0.0014475,0.00022831,0.0,0 STARLINK-5161,1 54163U 22141G   23285.47481831  .00022831  00000-0  14475-2 0  9994,2 54163  53.2182 351.2408 0001556  82.2827 277.8342 15.08850802 53122,6917.847,95.437,540.789,538.636,0.0
54163.0,STARLINK-5161,PAYLOAD,2023-10-12 14:34:30,15.08859675,0.0001477,53.2181,350.6466,77.0967,283.019,0.0015733,0.00024853,0.0,0 STARLINK-5161,1 54163U 22141G   23285.60729616  .00024853  00000-0  15733-2 0  9999,2 54163  53.2181 350.6466 0001477  77.0967 283.0190 15.08859675 53146,6917.82,95.436,540.707,538.663,0.0
54163.0,STARLINK-5161,PAYLOAD,2023-10-13 04:52:58,15.08841122,0.0001408,53.2178,347.9702,95.4825,264.6328,0.0008622,0.00013461,0.0,0 STARLINK-5161,1 54163U 22141G   23286.20345896  .00013461  00000-0  86220-3 0  9993,2 54163  53.2178 347.9702 0001408  95.4825 264.6328 15.08841122 53231,6917.877,95.437,540.716,538.768,0.0
54163.0,STARLINK-5161,PAYLOAD,2023-10-13 11:14:31,15.08859097,0.000154,53.2173,346.7806,87.5575,272.5593,0.0013079,0.00020599,0.0,0 STARLINK-5161,1 54163U 22141G   23286.46841657  .00020599  00000-0  13079-2 0  9998,2 54163  53.2173 346.7806 0001540  87.5575 272.5593 15.08859097 53275,6917.822,95.436,540.752,538.622,0.0
54163.0,STARLINK-5161,PAYLOAD,2023-10-13 20:46:50,15.08858136,0.000176,53.2179,344.9958,76.5449,283.574,0.0012457,0.00019603,0.0,0 STARLINK-5161,1 54163U 22141G   23286.86585684  .00019603  00000-0  12457-2 0  9990,2 54163  53.2179 344.9958 0001760  76.5449 283.5740 15.08858136 53337,6917.825,95.436,540.907,538.472,0.0
54163.0,STARLINK-5161,PAYLOAD,2023-10-14 11:05:17,15.08856147,0.0001231,53.2172,342.3218,93.1913,266.922,0.0016254,0.00025686,0.0,0 STARLINK-5161,1 54163U 22141G   23287.46201315  .00025686  00000-0  16254-2 0  9990,2 54163  53.2172 342.3218 0001231  93.1913 266.9220 15.08856147 53423,6917.831,95.437,540.548,538.844,0.0
54163.0,STARLINK-5161,PAYLOAD,2023-10-14 20:37:37,15.08833447,0.000229,53.217,340.5349,88.9013,271.2242,0.00044453,6.792e-05,0.0,0 STARLINK-5161,1 54163U 22141G   23287.85946131  .00006792  00000-0  44453-3 0  9995,2 54163  53.2170 340.5349 0002290  88.9013 271.2242 15.08833447 53482,6917.9,95.438,541.35,538.181,0.0
54163.0,STARLINK-5161,PAYLOAD,2023-10-14 23:48:23,15.08828528,0.0001506,53.2162,339.9434,108.0671,252.0485,0.00032797,4.934e-05,0.0,0 STARLINK-5161,1 54163U 22141G   23287.99193915  .00004934  00000-0  32797-3 0  9998,2 54163  53.2162 339.9434 0001506 108.0671 252.0485 15.08828528 53506,6917.915,95.438,540.822,538.739,0.0
54163.0,STARLINK-5161,PAYLOAD,2023-10-15 12:31:29,15.0883073,0.0001396,53.2166,337.5654,105.9906,254.124,0.00042042,6.408e-05,0.0,0 STARLINK-5161,1 54163U 22141G   23288.52186478  .00006408  00000-0  42042-3 0  9996,2 54163  53.2166 337.5654 0001396 105.9906 254.1240 15.08830730 53580,6917.909,95.438,540.739,538.808,0.0
54163.0,STARLINK-5161,PAYLOAD,2023-10-15 20:28:25,15.08837484,0.0001327,53.2161,336.0779,96.0458,264.0685,0.00092247,0.00014423,0.0,0 STARLINK-5161,1 54163U 22141G   23288.85306749  .00014423  00000-0  92247-3 0  9995,2 54163  53.2161 336.0779 0001327  96.0458 264.0685 15.08837484 53635,6917.888,95.438,540.671,538.835,0.0
54163.0,STARLINK-5161,PAYLOAD,2023-10-16 07:36:06,15.08851975,0.0001332,53.2159,333.9962,93.6925,266.4219,0.0010242,0.00016055,0.0,0 STARLINK-5161,1 54163U 22141G   23289.31674604  .00016055  00000-0  10242-2 0  9992,2 54163  53.2159 333.9962 0001332  93.6925 266.4219 15.08851975 53708,6917.844,95.437,540.63,538.787,0.0
54163.0,STARLINK-5161,PAYLOAD,2023-10-16 12:22:16,15.08860989,0.0001341,53.2159,333.1039,93.1108,267.0038,0.0011107,0.00017443,0.0,0 STARLINK-5161,1 54163U 22141G   23289.51546323  .00017443  00000-0  11107-2 0  9993,2 54163  53.2159 333.1039 0001341  93.1108 267.0038 15.08860989 53737,6917.816,95.436,540.609,538.754,0.0
54163.0,STARLINK-5161,PAYLOAD,2023-10-17 09:02:15,15.08895957,0.0001416,53.2154,329.2365,98.2487,261.8666,0.0015942,0.00025214,0.0,0 STARLINK-5161,1 54163U 22141G   23290.37656670  .00025214  00000-0  15942-2 0  9992,2 54163  53.2154 329.2365 0001416  98.2487 261.8666 15.08895957 53865,6917.709,95.434,540.554,538.595,0.0
54163.0,STARLINK-5161,PAYLOAD,2023-10-17 12:13:02,15.08842669,0.0001283,53.2161,328.6415,98.5935,261.5203,-0.00046381,-7.662e-05,0.0,0 STARLINK-5161,1 54163U 22141G   23290.50905342 -.00007662  00000-0 -46381-3 0  9991,2 54163  53.2161 328.6415 0001283  98.5935 261.5203 15.08842669 53883,6917.872,95.437,540.625,538.85,0.0
54163.0,STARLINK-5161,PAYLOAD,2023-10-17 20:09:58,15.08839065,0.0001274,53.2161,327.1545,97.5944,262.5193,-0.0001635,-2.889e-05,0.0,0 STARLINK-5161,1 54163U 22141G   23290.84025494 -.00002889  00000-0 -16350-3 0  9998,2 54163  53.2161 327.1545 0001274  97.5944 262.5193 15.08839065 53931,6917.883,95.438,540.63,538.867,0.0
54163.0,STARLINK-5161,PAYLOAD,2023-10-18 02:31:30,15.08844567,0.0001213,53.2159,325.9649,91.02,269.0931,0.00042523,6.487e-05,0.0,0 STARLINK-5161,1 54163U 22141G   23291.10521562  .00006487  00000-0  42523-3 0  9992,2 54163  53.2159 325.9649 0001213  91.0200 269.0931 15.08844567 53975,6917.866,95.437,540.571,538.892,0.0
54163.0,STARLINK-5161,PAYLOAD,2023-10-18 08:53:03,15.08842667,0.0001126,53.216,324.7754,85.6735,274.4386,0.0013273,0.00020901,0.0,0 STARLINK-5161,1 54163U 22141G   23291.37017735  .00020901  00000-0  13273-2 0  9999,2 54163  53.2160 324.7754 0001126  85.6735 274.4386 15.08842667 54015,6917.872,95.437,540.516,538.958,0.0
